H-2A R/B                
1 38341U 12025E   25316.84179126  .00008153  00000+0  75284-3 0  9999
2 38341  98.4552 269.7819 0045015 336.9083  23.0111 14.94138936730762
SHIJIAN-16 (SJ-16)      
1 39358U 13057A   25316.96274718  .00006459  00000+0  64033-3 0  9997
2 39358  74.9742  45.9882 0016420  32.0264 328.1919 14.91844197654094
SL-4 R/B                
1 39679U 14021B   25316.62490287  .00025774  00000+0  62101-3 0  9994
2 39679  51.6064 186.8328 0104138  37.8945 322.9309 15.35574983638260
ALOS-2                  
1 39766U 14029A   25316.91693975  .00004762  00000+0  64422-3 0  9992
2 39766  97.9228  52.1867 0001377  98.7034 261.4334 14.79465211619603
YAOGAN-29               
1 41038U 15069A   25316.99417465  .00001214  00000+0  15670-3 0  9998
2 41038  98.0251 340.0659 0002145  47.3342 312.8052 14.82834396538583
ASTRO-H (HITOMI)        
1 41337U 16012A   25316.59769384  .00006710  00000+0  40705-3 0  9998
2 41337  31.0012  31.6462 0009878 234.5018 125.4698 15.09080743534525
HXMT (HUIYAN)           
1 42758U 17034A   25317.01090449  .00016844  00000+0  86436-3 0  9998
2 42758  43.0148 304.5494 0033690 219.3640 140.4758 15.15784331464824
CZ-2C R/B               
1 43521U 18054D   25316.54424840  .00124481  00000+0  10728-2 0  9990
2 43521  35.1367  24.6307 0024159 209.2829 150.6548 15.67519391410301
SAOCOM 1A               
1 43641U 18076A   25316.96728192  .00001174  00000+0  15394-3 0  9998
2 43641  97.8864 141.8212 0001356  90.7163 269.4206 14.82164498384070
H-2A R/B                
1 43682U 18084L   25316.47778113  .00046906  00000+0  13201-2 0  9992
2 43682  98.8803 144.3214 0029169  69.0791 291.3566 15.35899786387752
SAOCOM 1B               
1 46265U 20059A   25316.99854071  .00001222  00000+0  15999-3 0  9991
2 46265  97.8853 140.9543 0001478  86.7739 273.3643 14.82172298281464
CSS (TIANHE)            
1 48274U 21035A   25316.92688707  .00053056  00000+0  61206-3 0  9996
2 48274  41.4653 197.6593 0004214  14.6230 345.4730 15.61060096259373
