CCSDS_OMM_VERS = 2.0
CREATION_DATE  = 
ORIGINATOR     = 

OBJECT_NAME    = H-2A R/B
OBJECT_ID      = 2012-025E
CENTER_NAME    = EARTH
REF_FRAME      = TEME
TIME_SYSTEM    = UTC
MEAN_ELEMENT_THEORY = SGP/SGP4

EPOCH          = 2025-11-12T20:12:10.764864
MEAN_MOTION    = 14.94138936
ECCENTRICITY   = .00450151
INCLINATION    = 98.4552
RA_OF_ASC_NODE = 269.7819
ARG_OF_PERICENTER = 336.9083
MEAN_ANOMALY   = 23.0111

EPHEMERIS_TYPE = 0
CLASSIFICATION_TYPE = U
NORAD_CAT_ID   = 38341
ELEMENT_SET_NO = 999
REV_AT_EPOCH   = 73076
BSTAR          = .75283797E-3
MEAN_MOTION_DOT = .8153E-4
MEAN_MOTION_DDOT = 0

CCSDS_OMM_VERS = 2.0
CREATION_DATE  = 
ORIGINATOR     = 

OBJECT_NAME    = SHIJIAN-16 (SJ-16)
OBJECT_ID      = 2013-057A
CENTER_NAME    = EARTH
REF_FRAME      = TEME
TIME_SYSTEM    = UTC
MEAN_ELEMENT_THEORY = SGP/SGP4

EPOCH          = 2025-11-12T23:06:21.356352
MEAN_MOTION    = 14.91844197
ECCENTRICITY   = .00164209
INCLINATION    = 74.9742
RA_OF_ASC_NODE = 45.9882
ARG_OF_PERICENTER = 32.0264
MEAN_ANOMALY   = 328.1919

EPHEMERIS_TYPE = 0
CLASSIFICATION_TYPE = U
NORAD_CAT_ID   = 39358
ELEMENT_SET_NO = 999
REV_AT_EPOCH   = 65409
BSTAR          = .64032656E-3
MEAN_MOTION_DOT = .6459E-4
MEAN_MOTION_DDOT = 0

CCSDS_OMM_VERS = 2.0
CREATION_DATE  = 
ORIGINATOR     = 

OBJECT_NAME    = SL-4 R/B
OBJECT_ID      = 2014-021B
CENTER_NAME    = EARTH
REF_FRAME      = TEME
TIME_SYSTEM    = UTC
MEAN_ELEMENT_THEORY = SGP/SGP4

EPOCH          = 2025-11-12T14:59:51.607968
MEAN_MOTION    = 15.35574983
ECCENTRICITY   = .0104138
INCLINATION    = 51.6064
RA_OF_ASC_NODE = 186.8328
ARG_OF_PERICENTER = 37.8945
MEAN_ANOMALY   = 322.9309

EPHEMERIS_TYPE = 0
CLASSIFICATION_TYPE = U
NORAD_CAT_ID   = 39679
ELEMENT_SET_NO = 999
REV_AT_EPOCH   = 63826
BSTAR          = .62101021E-3
MEAN_MOTION_DOT = .25774E-3
MEAN_MOTION_DDOT = 0

CCSDS_OMM_VERS = 2.0
CREATION_DATE  = 
ORIGINATOR     = 

OBJECT_NAME    = ALOS-2
OBJECT_ID      = 2014-029A
CENTER_NAME    = EARTH
REF_FRAME      = TEME
TIME_SYSTEM    = UTC
MEAN_ELEMENT_THEORY = SGP/SGP4

EPOCH          = 2025-11-12T22:00:23.594400
MEAN_MOTION    = 14.79465211
ECCENTRICITY   = .0001377
INCLINATION    = 97.9228
RA_OF_ASC_NODE = 52.1867
ARG_OF_PERICENTER = 98.7034
MEAN_ANOMALY   = 261.4334

EPHEMERIS_TYPE = 0
CLASSIFICATION_TYPE = U
NORAD_CAT_ID   = 39766
ELEMENT_SET_NO = 999
REV_AT_EPOCH   = 61960
BSTAR          = .64422293E-3
MEAN_MOTION_DOT = .4762E-4
MEAN_MOTION_DDOT = 0

CCSDS_OMM_VERS = 2.0
CREATION_DATE  = 
ORIGINATOR     = 

OBJECT_NAME    = YAOGAN-29
OBJECT_ID      = 2015-069A
CENTER_NAME    = EARTH
REF_FRAME      = TEME
TIME_SYSTEM    = UTC
MEAN_ELEMENT_THEORY = SGP/SGP4

EPOCH          = 2025-11-12T23:51:36.689760
MEAN_MOTION    = 14.82834396
ECCENTRICITY   = .00021456
INCLINATION    = 98.0251
RA_OF_ASC_NODE = 340.0659
ARG_OF_PERICENTER = 47.3342
MEAN_ANOMALY   = 312.8052

EPHEMERIS_TYPE = 0
CLASSIFICATION_TYPE = U
NORAD_CAT_ID   = 41038
ELEMENT_SET_NO = 999
REV_AT_EPOCH   = 53858
BSTAR          = .15670143E-3
MEAN_MOTION_DOT = .1214E-4
MEAN_MOTION_DDOT = 0

CCSDS_OMM_VERS = 2.0
CREATION_DATE  = 
ORIGINATOR     = 

OBJECT_NAME    = ASTRO-H (HITOMI)
OBJECT_ID      = 2016-012A
CENTER_NAME    = EARTH
REF_FRAME      = TEME
TIME_SYSTEM    = UTC
MEAN_ELEMENT_THEORY = SGP/SGP4

EPOCH          = 2025-11-12T14:20:40.747776
MEAN_MOTION    = 15.09080743
ECCENTRICITY   = .00098783
INCLINATION    = 31.0012
RA_OF_ASC_NODE = 31.6462
ARG_OF_PERICENTER = 234.5018
MEAN_ANOMALY   = 125.4698

EPHEMERIS_TYPE = 0
CLASSIFICATION_TYPE = U
NORAD_CAT_ID   = 41337
ELEMENT_SET_NO = 999
REV_AT_EPOCH   = 53452
BSTAR          = .40704827E-3
MEAN_MOTION_DOT = .671E-4
MEAN_MOTION_DDOT = 0

CCSDS_OMM_VERS = 2.0
CREATION_DATE  = 
ORIGINATOR     = 

OBJECT_NAME    = HXMT (HUIYAN)
OBJECT_ID      = 2017-034A
CENTER_NAME    = EARTH
REF_FRAME      = TEME
TIME_SYSTEM    = UTC
MEAN_ELEMENT_THEORY = SGP/SGP4

EPOCH          = 2025-11-13T00:15:42.147936
MEAN_MOTION    = 15.15784331
ECCENTRICITY   = .00336908
INCLINATION    = 43.0148
RA_OF_ASC_NODE = 304.5494
ARG_OF_PERICENTER = 219.3640
MEAN_ANOMALY   = 140.4758

EPHEMERIS_TYPE = 0
CLASSIFICATION_TYPE = U
NORAD_CAT_ID   = 42758
ELEMENT_SET_NO = 999
REV_AT_EPOCH   = 46482
BSTAR          = .86436095E-3
MEAN_MOTION_DOT = .16844E-3
MEAN_MOTION_DDOT = 0

CCSDS_OMM_VERS = 2.0
CREATION_DATE  = 
ORIGINATOR     = 

OBJECT_NAME    = CZ-2C R/B
OBJECT_ID      = 2018-054D
CENTER_NAME    = EARTH
REF_FRAME      = TEME
TIME_SYSTEM    = UTC
MEAN_ELEMENT_THEORY = SGP/SGP4

EPOCH          = 2025-11-12T13:03:43.061760
MEAN_MOTION    = 15.67519391
ECCENTRICITY   = .00241597
INCLINATION    = 35.1367
RA_OF_ASC_NODE = 24.6307
ARG_OF_PERICENTER = 209.2829
MEAN_ANOMALY   = 150.6548

EPHEMERIS_TYPE = 0
CLASSIFICATION_TYPE = U
NORAD_CAT_ID   = 43521
ELEMENT_SET_NO = 999
REV_AT_EPOCH   = 41030
BSTAR          = .10728037E-2
MEAN_MOTION_DOT = .124481E-2
MEAN_MOTION_DDOT = 0

CCSDS_OMM_VERS = 2.0
CREATION_DATE  = 
ORIGINATOR     = 

OBJECT_NAME    = SAOCOM 1A
OBJECT_ID      = 2018-076A
CENTER_NAME    = EARTH
REF_FRAME      = TEME
TIME_SYSTEM    = UTC
MEAN_ELEMENT_THEORY = SGP/SGP4

EPOCH          = 2025-11-12T23:12:53.157888
MEAN_MOTION    = 14.82164498
ECCENTRICITY   = .00013563
INCLINATION    = 97.8864
RA_OF_ASC_NODE = 141.8212
ARG_OF_PERICENTER = 90.7163
MEAN_ANOMALY   = 269.4206

EPHEMERIS_TYPE = 0
CLASSIFICATION_TYPE = U
NORAD_CAT_ID   = 43641
ELEMENT_SET_NO = 999
REV_AT_EPOCH   = 38407
BSTAR          = .153936E-3
MEAN_MOTION_DOT = .1174E-4
MEAN_MOTION_DDOT = 0

CCSDS_OMM_VERS = 2.0
CREATION_DATE  = 
ORIGINATOR     = 

OBJECT_NAME    = H-2A R/B
OBJECT_ID      = 2018-084L
CENTER_NAME    = EARTH
REF_FRAME      = TEME
TIME_SYSTEM    = UTC
MEAN_ELEMENT_THEORY = SGP/SGP4

EPOCH          = 2025-11-12T11:28:00.289632
MEAN_MOTION    = 15.35899786
ECCENTRICITY   = .00291695
INCLINATION    = 98.8803
RA_OF_ASC_NODE = 144.3214
ARG_OF_PERICENTER = 69.0791
MEAN_ANOMALY   = 291.3566

EPHEMERIS_TYPE = 0
CLASSIFICATION_TYPE = U
NORAD_CAT_ID   = 43682
ELEMENT_SET_NO = 999
REV_AT_EPOCH   = 38775
BSTAR          = .13200537E-2
MEAN_MOTION_DOT = .46906E-3
MEAN_MOTION_DDOT = 0

CCSDS_OMM_VERS = 2.0
CREATION_DATE  = 
ORIGINATOR     = 

OBJECT_NAME    = SAOCOM 1B
OBJECT_ID      = 2020-059A
CENTER_NAME    = EARTH
REF_FRAME      = TEME
TIME_SYSTEM    = UTC
MEAN_ELEMENT_THEORY = SGP/SGP4

EPOCH          = 2025-11-12T23:57:53.917344
MEAN_MOTION    = 14.82172298
ECCENTRICITY   = .00014782
INCLINATION    = 97.8853
RA_OF_ASC_NODE = 140.9543
ARG_OF_PERICENTER = 86.7739
MEAN_ANOMALY   = 273.3643

EPHEMERIS_TYPE = 0
CLASSIFICATION_TYPE = U
NORAD_CAT_ID   = 46265
ELEMENT_SET_NO = 999
REV_AT_EPOCH   = 28146
BSTAR          = .15998503E-3
MEAN_MOTION_DOT = .1222E-4
MEAN_MOTION_DDOT = 0

CCSDS_OMM_VERS = 2.0
CREATION_DATE  = 
ORIGINATOR     = 

OBJECT_NAME    = CSS (TIANHE)
OBJECT_ID      = 2021-035A
CENTER_NAME    = EARTH
REF_FRAME      = TEME
TIME_SYSTEM    = UTC
MEAN_ELEMENT_THEORY = SGP/SGP4

EPOCH          = 2025-11-12T22:14:43.042848
MEAN_MOTION    = 15.61060096
ECCENTRICITY   = .00042148
INCLINATION    = 41.4653
RA_OF_ASC_NODE = 197.6593
ARG_OF_PERICENTER = 14.6230
MEAN_ANOMALY   = 345.4730

EPHEMERIS_TYPE = 0
CLASSIFICATION_TYPE = U
NORAD_CAT_ID   = 48274
ELEMENT_SET_NO = 999
REV_AT_EPOCH   = 25937
BSTAR          = .61205692E-3
MEAN_MOTION_DOT = .53056E-3
MEAN_MOTION_DDOT = 0

